STARLINK-32410          
1 61887U 24204P   26068.39800075 -.00002646  00000+0 -77260-4 0  9991
2 61887  53.1600 128.3831 0001131  68.5581 291.5540 15.30199223 75050
TEVEL2-9                
1 63237U 25052AD  26068.70229538  .00018694  00000+0  67240-3 0  9992
2 63237  97.4057 324.3929 0007990 124.2475 235.9522 15.28633834 54816
